{
  "type": "FeatureCollection",
  "features": [
    {
      "type": "Feature",
      "properties": {
        "norad_id": 30264,
        "name": "FENGYUN 1C DEB",
        "group": "fengyun-1c-debris",
        "lat": -5.6009706366020575,
        "lon": -138.81568698430513,
        "alt_km": 885.4134774929998,
        "timestamp": "2025-12-12T22:42:12.820741+00:00",
        "meta_object_name": "FENGYUN 1C DEB",
        "meta_object_id": "1999-025XZ",
        "meta_epoch": "2025-12-12T03:10:43.215168",
        "meta_mean_motion": 14.07634283,
        "meta_eccentricity": 0.0107048,
        "meta_inclination": 98.9701,
        "meta_ra_of_asc_node": 41.264,
        "meta_arg_of_pericenter": 289.1012,
        "meta_mean_anomaly": 97.3428,
        "meta_ephemeris_type": 0,
        "meta_classification_type": "U",
        "meta_norad_cat_id": 30264,
        "meta_element_set_no": 999,
        "meta_rev_at_epoch": 96549,
        "meta_bstar": 0.0016680723,
        "meta_mean_motion_dot": 2.924e-05,
        "meta_mean_motion_ddot": 0,
        "tle_line1": "1 30264U 99025XZ  25346.13244462  .00002924  00000+0  16681-2 0  9996",
        "tle_line2": "2 30264  98.9701  41.2640 0107048 289.1012  97.3428 14.07634283965495"
      },
      "geometry": {
        "type": "Point",
        "coordinates": [
          -138.81568698430513,
          -5.6009706366020575
        ]
      }
    },
    {
      "type": "Feature",
      "properties": {
        "norad_id": 30265,
        "name": "FENGYUN 1C DEB",
        "group": "fengyun-1c-debris",
        "lat": -63.1451903076415,
        "lon": -101.44650657211285,
        "alt_km": 717.2225620790932,
        "timestamp": "2025-12-12T22:42:12.820751+00:00",
        "meta_object_name": "FENGYUN 1C DEB",
        "meta_object_id": "1999-025YA",
        "meta_epoch": "2025-12-12T07:01:16.359744",
        "meta_mean_motion": 14.58611416,
        "meta_eccentricity": 0.00282876,
        "meta_inclination": 98.664,
        "meta_ra_of_asc_node": 95.3987,
        "meta_arg_of_pericenter": 15.056,
        "meta_mean_anomaly": 40.4381,
        "meta_ephemeris_type": 0,
        "meta_classification_type": "U",
        "meta_norad_cat_id": 30265,
        "meta_element_set_no": 999,
        "meta_rev_at_epoch": 98395,
        "meta_bstar": 0.0035350931,
        "meta_mean_motion_dot": 0.00016535,
        "meta_mean_motion_ddot": 0,
        "tle_line1": "1 30265U 99025YA  25346.29255046  .00016535  00000+0  35351-2 0  9992",
        "tle_line2": "2 30265  98.6640  95.3987 0028287  15.0560  40.4381 14.58611416983957"
      },
      "geometry": {
        "type": "Point",
        "coordinates": [
          -101.44650657211285,
          -63.1451903076415
        ]
      }
    },
    {
      "type": "Feature",
      "properties": {
        "norad_id": 30266,
        "name": "FENGYUN 1C DEB",
        "group": "fengyun-1c-debris",
        "lat": -45.53471738772202,
        "lon": -138.17748237520706,
        "alt_km": 905.0336767073277,
        "timestamp": "2025-12-12T22:42:12.820761+00:00",
        "meta_object_name": "FENGYUN 1C DEB",
        "meta_object_id": "1999-025YB",
        "meta_epoch": "2025-12-12T03:07:01.385760",
        "meta_mean_motion": 14.15077285,
        "meta_eccentricity": 0.00826897,
        "meta_inclination": 99.0427,
        "meta_ra_of_asc_node": 50.3331,
        "meta_arg_of_pericenter": 67.7473,
        "meta_mean_anomaly": 322.9627,
        "meta_ephemeris_type": 0,
        "meta_classification_type": "U",
        "meta_norad_cat_id": 30266,
        "meta_element_set_no": 999,
        "meta_rev_at_epoch": 96781,
        "meta_bstar": 0.0019523897,
        "meta_mean_motion_dot": 3.868e-05,
        "meta_mean_motion_ddot": 0,
        "tle_line1": "1 30266U 99025YB  25346.12987715  .00003868  00000+0  19524-2 0  9999",
        "tle_line2": "2 30266  99.0427  50.3331 0082689  67.7473 322.9627 14.15077285967814"
      },
      "geometry": {
        "type": "Point",
        "coordinates": [
          -138.17748237520706,
          -45.53471738772202
        ]
      }
    },
    {
      "type": "Feature",
      "properties": {
        "norad_id": 30267,
        "name": "FENGYUN 1C DEB",
        "group": "fengyun-1c-debris",
        "lat": 33.864011666244764,
        "lon": -115.88972979967637,
        "alt_km": 815.8187895550191,
        "timestamp": "2025-12-12T22:42:12.820771+00:00",
        "meta_object_name": "FENGYUN 1C DEB",
        "meta_object_id": "1999-025YC",
        "meta_epoch": "2025-12-11T15:39:11.744928",
        "meta_mean_motion": 14.2359382,
        "meta_eccentricity": 0.00589877,
        "meta_inclination": 98.8494,
        "meta_ra_of_asc_node": 56.8082,
        "meta_arg_of_pericenter": 246.2038,
        "meta_mean_anomaly": 113.2948,
        "meta_ephemeris_type": 0,
        "meta_classification_type": "U",
        "meta_norad_cat_id": 30267,
        "meta_element_set_no": 999,
        "meta_rev_at_epoch": 97279,
        "meta_bstar": 0.0023860884,
        "meta_mean_motion_dot": 5.492e-05,
        "meta_mean_motion_ddot": 0,
        "tle_line1": "1 30267U 99025YC  25345.65221927  .00005492  00000+0  23861-2 0  9997",
        "tle_line2": "2 30267  98.8494  56.8082 0058987 246.2038 113.2948 14.23593820972792"
      },
      "geometry": {
        "type": "Point",
        "coordinates": [
          -115.88972979967637,
          33.864011666244764
        ]
      }
    },
    {
      "type": "Feature",
      "properties": {
        "norad_id": 30270,
        "name": "FENGYUN 1C DEB",
        "group": "fengyun-1c-debris",
        "lat": 52.87156008825364,
        "lon": -167.66633426809057,
        "alt_km": 845.5117898431508,
        "timestamp": "2025-12-12T22:42:12.820781+00:00",
        "meta_object_name": "FENGYUN 1C DEB",
        "meta_object_id": "1999-025YF",
        "meta_epoch": "2025-12-12T06:52:12.031104",
        "meta_mean_motion": 14.11270785,
        "meta_eccentricity": 0.00074007,
        "meta_inclination": 98.7024,
        "meta_ra_of_asc_node": 0.0224,
        "meta_arg_of_pericenter": 160.4847,
        "meta_mean_anomaly": 215.7924,
        "meta_ephemeris_type": 0,
        "meta_classification_type": "U",
        "meta_norad_cat_id": 30270,
        "meta_element_set_no": 999,
        "meta_rev_at_epoch": 97355,
        "meta_bstar": 0.00017044624,
        "meta_mean_motion_dot": 2.65e-06,
        "meta_mean_motion_ddot": 0,
        "tle_line1": "1 30270U 99025YF  25346.28625036  .00000265  00000+0  17045-3 0  9991",
        "tle_line2": "2 30270  98.7024   0.0224 0007400 160.4847 215.7924 14.11270785973558"
      },
      "geometry": {
        "type": "Point",
        "coordinates": [
          -167.66633426809057,
          52.87156008825364
        ]
      }
    },
    {
      "type": "Feature",
      "properties": {
        "norad_id": 30272,
        "name": "FENGYUN 1C DEB",
        "group": "fengyun-1c-debris",
        "lat": -0.23193341682684362,
        "lon": 54.67577963349211,
        "alt_km": 854.5491551511159,
        "timestamp": "2025-12-12T22:42:12.820792+00:00",
        "meta_object_name": "FENGYUN 1C DEB",
        "meta_object_id": "1999-025YH",
        "meta_epoch": "2025-12-12T04:01:59.441376",
        "meta_mean_motion": 14.14708182,
        "meta_eccentricity": 0.00509865,
        "meta_inclination": 98.9007,
        "meta_ra_of_asc_node": 53.864,
        "meta_arg_of_pericenter": 105.4494,
        "meta_mean_anomaly": 255.2318,
        "meta_ephemeris_type": 0,
        "meta_classification_type": "U",
        "meta_norad_cat_id": 30272,
        "meta_element_set_no": 999,
        "meta_rev_at_epoch": 96848,
        "meta_bstar": 0.0017684296,
        "meta_mean_motion_dot": 3.404e-05,
        "meta_mean_motion_ddot": 0,
        "tle_line1": "1 30272U 99025YH  25346.16804909  .00003404  00000+0  17684-2 0  9994",
        "tle_line2": "2 30272  98.9007  53.8640 0050986 105.4494 255.2318 14.14708182968487"
      },
      "geometry": {
        "type": "Point",
        "coordinates": [
          54.67577963349211,
          -0.23193341682684362
        ]
      }
    },
    {
      "type": "Feature",
      "properties": {
        "norad_id": 30273,
        "name": "FENGYUN 1C DEB",
        "group": "fengyun-1c-debris",
        "lat": -30.26709178492621,
        "lon": 6.714031684917336,
        "alt_km": 883.0085412298095,
        "timestamp": "2025-12-12T22:42:12.820802+00:00",
        "meta_object_name": "FENGYUN 1C DEB",
        "meta_object_id": "1999-025YJ",
        "meta_epoch": "2025-12-12T07:31:47.714880",
        "meta_mean_motion": 14.02659841,
        "meta_eccentricity": 0.00603909,
        "meta_inclination": 98.8409,
        "meta_ra_of_asc_node": 0.8892,
        "meta_arg_of_pericenter": 250.6669,
        "meta_mean_anomaly": 127.329,
        "meta_ephemeris_type": 0,
        "meta_classification_type": "U",
        "meta_norad_cat_id": 30273,
        "meta_element_set_no": 999,
        "meta_rev_at_epoch": 96523,
        "meta_bstar": 0.00069460549,
        "meta_mean_motion_dot": 1.046e-05,
        "meta_mean_motion_ddot": 0,
        "tle_line1": "1 30273U 99025YJ  25346.31374670  .00001046  00000+0  69461-3 0  9990",
        "tle_line2": "2 30273  98.8409   0.8892 0060390 250.6669 127.3290 14.02659841965233"
      },
      "geometry": {
        "type": "Point",
        "coordinates": [
          6.714031684917336,
          -30.26709178492621
        ]
      }
    }
  ]
}